{"type": "FeatureCollection", "features": [ {"type": "Feature", "properties": {"norad_id": 33867, "name": "IRIDIUM 33 DEB", "group": "iridium-33-debris", "lat": 85.14111849570695, "lon": 32.19879788255899, "alt_km": 198.78355783891766, "timestamp": "2025-12-24T09:46:31.388960+00:00", "meta": {"OBJECT_NAME": "IRIDIUM 33 DEB", "OBJECT_ID": "1997-051AL", "EPOCH": "2025-12-23T20:01:30.593568", "MEAN_MOTION": 16.07905619, "ECCENTRICITY": 0.00123823, "INCLINATION": 86.3716, "RA_OF_ASC_NODE": 344.225, "ARG_OF_PERICENTER": 111.097, "MEAN_ANOMALY": 249.1645, "EPHEMERIS_TYPE": 0, "CLASSIFICATION_TYPE": "U", "NORAD_CAT_ID": 33867, "ELEMENT_SET_NO": 999, "REV_AT_EPOCH": 89686, "BSTAR": 0.010041813, "MEAN_MOTION_DOT": 0.05649041, "MEAN_MOTION_DDOT": 0.086118142}, "tle": {"line1": "1 33867U 97051AL  25357.83438187  .05649041  86118-1  10042-1 0  9995", "line2": "2 33867  86.3716 344.2250 0012382 111.0970 249.1645 16.07905619896867"}}, "geometry": {"type": "Point", "coordinates": [32.19879788255899, 85.14111849570695]}}, {"type": "Feature", "properties": {"norad_id": 33870, "name": "IRIDIUM 33 DEB", "group": "iridium-33-debris", "lat": 0.5733444780538959, "lon": -126.77713532022251, "alt_km": 729.4048981955539, "timestamp": "2025-12-24T09:46:31.388972+00:00", "meta": {"OBJECT_NAME": "IRIDIUM 33 DEB", "OBJECT_ID": "1997-051AP", "EPOCH": "2025-12-24T04:15:06.179040", "MEAN_MOTION": 14.45905972, "ECCENTRICITY": 0.0022581, "INCLINATION": 86.3733, "RA_OF_ASC_NODE": 53.3579, "ARG_OF_PERICENTER": 141.805, "MEAN_ANOMALY": 280.099, "EPHEMERIS_TYPE": 0, "CLASSIFICATION_TYPE": "U", "NORAD_CAT_ID": 33870, "ELEMENT_SET_NO": 999, "REV_AT_EPOCH": 88302, "BSTAR": 0.00071294, "MEAN_MOTION_DOT": 2.561e-05, "MEAN_MOTION_DDOT": 0}, "tle": {"line1": "1 33870U 97051AP  25358.17715485  .00002561  00000+0  71294-3 0  9993", "line2": "2 33870  86.3733  53.3579 0022581 141.8050 280.0990 14.45905972883027"}}, "geometry": {"type": "Point", "coordinates": [-126.77713532022251, 0.5733444780538959]}}, {"type": "Feature", "properties": {"norad_id": 33881, "name": "IRIDIUM 33 DEB", "group": "iridium-33-debris", "lat": 39.60972899092197, "lon": -81.32679916530937, "alt_km": 657.3891543253012, "timestamp": "2025-12-24T09:46:31.388983+00:00", "meta": {"OBJECT_NAME": "IRIDIUM 33 DEB", "OBJECT_ID": "1997-051BA", "EPOCH": "2025-12-24T03:09:43.258752", "MEAN_MOTION": 14.56771467, "ECCENTRICITY": 0.0061175, "INCLINATION": 86.3859, "RA_OF_ASC_NODE": 101.7912, "ARG_OF_PERICENTER": 137.9225, "MEAN_ANOMALY": 358.0515, "EPHEMERIS_TYPE": 0, "CLASSIFICATION_TYPE": "U", "NORAD_CAT_ID": 33881, "ELEMENT_SET_NO": 999, "REV_AT_EPOCH": 87666, "BSTAR": 0.0021433, "MEAN_MOTION_DOT": 9.861e-05, "MEAN_MOTION_DDOT": 0}, "tle": {"line1": "1 33881U 97051BA  25358.13175068  .00009861  00000+0  21433-2 0  9997", "line2": "2 33881  86.3859 101.7912 0061175 137.9225 358.0515 14.56771467876662"}}, "geometry": {"type": "Point", "coordinates": [-81.32679916530937, 39.60972899092197]}}, {"type": "Feature", "properties": {"norad_id": 33884, "name": "IRIDIUM 33 DEB", "group": "iridium-33-debris", "lat": -61.697274604373646, "lon": -168.67880096644993, "alt_km": 638.9453499967294, "timestamp": "2025-12-24T09:46:31.388994+00:00", "meta": {"OBJECT_NAME": "IRIDIUM 33 DEB", "OBJECT_ID": "1997-051BD", "EPOCH": "2025-12-24T00:47:57.514848", "MEAN_MOTION": 14.77644714, "ECCENTRICITY": 0.0008903, "INCLINATION": 86.3696, "RA_OF_ASC_NODE": 4.7191, "ARG_OF_PERICENTER": 278.9488, "MEAN_ANOMALY": 134.745, "EPHEMERIS_TYPE": 0, "CLASSIFICATION_TYPE": "U", "NORAD_CAT_ID": 33884, "ELEMENT_SET_NO": 999, "REV_AT_EPOCH": 89014, "BSTAR": 0.0015474, "MEAN_MOTION_DOT": 0.00011107, "MEAN_MOTION_DDOT": 0}, "tle": {"line1": "1 33884U 97051BD  25358.03330457  .00011107  00000+0  15474-2 0  9998", "line2": "2 33884  86.3696   4.7191 0008903 278.9488 134.7450 14.77644714890145"}}, "geometry": {"type": "Point", "coordinates": [-168.67880096644993, -61.697274604373646]}}, {"type": "Feature", "properties": {"norad_id": 33886, "name": "IRIDIUM 33 DEB", "group": "iridium-33-debris", "lat": -47.88219832701062, "lon": -113.66972466459167, "alt_km": 769.9675715511994, "timestamp": "2025-12-24T09:46:31.389005+00:00", "meta": {"OBJECT_NAME": "IRIDIUM 33 DEB", "OBJECT_ID": "1997-051BF", "EPOCH": "2025-12-24T03:47:51.511776", "MEAN_MOTION": 14.36064559, "ECCENTRICITY": 0.0013372, "INCLINATION": 86.382, "RA_OF_ASC_NODE": 62.4223, "ARG_OF_PERICENTER": 201.1146, "MEAN_ANOMALY": 179.8883, "EPHEMERIS_TYPE": 0, "CLASSIFICATION_TYPE": "U", "NORAD_CAT_ID": 33886, "ELEMENT_SET_NO": 999, "REV_AT_EPOCH": 88216, "BSTAR": 0.00017797, "MEAN_MOTION_DOT": 5.38e-06, "MEAN_MOTION_DDOT": 0}, "tle": {"line1": "1 33886U 97051BF  25358.15823509  .00000538  00000+0  17797-3 0  9995", "line2": "2 33886  86.3820  62.4223 0013372 201.1146 179.8883 14.36064559882169"}}, "geometry": {"type": "Point", "coordinates": [-113.66972466459167, -47.88219832701062]}}, {"type": "Feature", "properties": {"norad_id": 33887, "name": "IRIDIUM 33 DEB", "group": "iridium-33-debris", "lat": -33.163664293077865, "lon": -179.21544590890977, "alt_km": 770.418953546693, "timestamp": "2025-12-24T09:46:31.389016+00:00", "meta": {"OBJECT_NAME": "IRIDIUM 33 DEB", "OBJECT_ID": "1997-051BG", "EPOCH": "2025-12-24T00:40:58.383264", "MEAN_MOTION": 14.37230664, "ECCENTRICITY": 0.000568, "INCLINATION": 86.3042, "RA_OF_ASC_NODE": 358.527, "ARG_OF_PERICENTER": 183.0927, "MEAN_ANOMALY": 231.047, "EPHEMERIS_TYPE": 0, "CLASSIFICATION_TYPE": "U", "NORAD_CAT_ID": 33887, "ELEMENT_SET_NO": 999, "REV_AT_EPOCH": 88327, "BSTAR": 0.00013926, "MEAN_MOTION_DOT": 4.34e-06, "MEAN_MOTION_DDOT": 0}, "tle": {"line1": "1 33887U 97051BG  25358.02845351  .00000434  00000+0  13926-3 0  9996", "line2": "2 33887  86.3042 358.5270 0005680 183.0927 231.0470 14.37230664883274"}}, "geometry": {"type": "Point", "coordinates": [-179.21544590890977, -33.163664293077865]}}, {"type": "Feature", "properties": {"norad_id": 33953, "name": "IRIDIUM 33 DEB", "group": "iridium-33-debris", "lat": 69.60349959233287, "lon": -141.08010814048205, "alt_km": 692.1416852296361, "timestamp": "2025-12-24T09:46:31.389028+00:00", "meta": {"OBJECT_NAME": "IRIDIUM 33 DEB", "OBJECT_ID": "1997-051BN", "EPOCH": "2025-12-24T02:46:21.899136", "MEAN_MOTION": 14.55425876, "ECCENTRICITY": 0.0017677, "INCLINATION": 86.383, "RA_OF_ASC_NODE": 48.8412, "ARG_OF_PERICENTER": 68.0376, "MEAN_ANOMALY": 314.0842, "EPHEMERIS_TYPE": 0, "CLASSIFICATION_TYPE": "U", "NORAD_CAT_ID": 33953, "ELEMENT_SET_NO": 999, "REV_AT_EPOCH": 88469, "BSTAR": 0.0011436, "MEAN_MOTION_DOT": 5e-05, "MEAN_MOTION_DDOT": 0}, "tle": {"line1": "1 33953U 97051BN  25358.11553124  .00005000  00000+0  11436-2 0  9991", "line2": "2 33953  86.3830  48.8412 0017677  68.0376 314.0842 14.55425876884692"}}, "geometry": {"type": "Point", "coordinates": [-141.08010814048205, 69.60349959233287]}}, {"type": "Feature", "properties": {"norad_id": 33960, "name": "IRIDIUM 33 DEB", "group": "iridium-33-debris", "lat": 82.39550074985286, "lon": 74.62070259385962, "alt_km": 600.9680285724507, "timestamp": "2025-12-24T09:46:31.389039+00:00", "meta": {"OBJECT_NAME": "IRIDIUM 33 DEB", "OBJECT_ID": "1997-051BV", "EPOCH": "2025-12-24T01:19:20.742816", "MEAN_MOTION": 14.85736917, "ECCENTRICITY": 0.0007198, "INCLINATION": 86.2538, "RA_OF_ASC_NODE": 284.1777, "ARG_OF_PERICENTER": 42.5322, "MEAN_ANOMALY": 331.4121, "EPHEMERIS_TYPE": 0, "CLASSIFICATION_TYPE": "U", "NORAD_CAT_ID": 33960, "ELEMENT_SET_NO": 999, "REV_AT_EPOCH": 89035, "BSTAR": 0.0029926, "MEAN_MOTION_DOT": 0.00026082, "MEAN_MOTION_DDOT": 0}, "tle": {"line1": "1 33960U 97051BV  25358.05510119  .00026082  00000+0  29926-2 0  9995", "line2": "2 33960  86.2538 284.1777 0007198  42.5322 331.4121 14.85736917890355"}}, "geometry": {"type": "Point", "coordinates": [74.62070259385962, 82.39550074985286]}}, {"type": "Feature", "properties": {"norad_id": 33966, "name": "IRIDIUM 33 DEB", "group": "iridium-33-debris", "lat": -5.863002832699808, "lon": 40.64808457278074, "alt_km": 736.3256801860161, "timestamp": "2025-12-24T09:46:31.389050+00:00", "meta": {"OBJECT_NAME": "IRIDIUM 33 DEB", "OBJECT_ID": "1997-051CB", "EPOCH": "2025-12-24T03:25:26.789088", "MEAN_MOTION": 14.49636291, "ECCENTRICITY": 0.0008651, "INCLINATION": 86.391, "RA_OF_ASC_NODE": 41.133, "ARG_OF_PERICENTER": 152.8356, "MEAN_ANOMALY": 261.2768, "EPHEMERIS_TYPE": 0, "CLASSIFICATION_TYPE": "U", "NORAD_CAT_ID": 33966, "ELEMENT_SET_NO": 999, "REV_AT_EPOCH": 88607, "BSTAR": 0.0004701, "MEAN_MOTION_DOT": 1.826e-05, "MEAN_MOTION_DDOT": 0}, "tle": {"line1": "1 33966U 97051CB  25358.14267117  .00001826  00000+0  47010-3 0  9992", "line2": "2 33966  86.3910  41.1330 0008651 152.8356 261.2768 14.49636291886074"}}, "geometry": {"type": "Point", "coordinates": [40.64808457278074, -5.863002832699808]}}, {"type": "Feature", "properties": {"norad_id": 34071, "name": "IRIDIUM 33 DEB", "group": "iridium-33-debris", "lat": 55.09518499038309, "lon": 18.012550493306648, "alt_km": 715.5222865280239, "timestamp": "2025-12-24T09:46:31.389060+00:00", "meta": {"OBJECT_NAME": "IRIDIUM 33 DEB", "OBJECT_ID": "1997-051CE", "EPOCH": "2025-12-24T01:14:15.700704", "MEAN_MOTION": 14.49512497, "ECCENTRICITY": 0.0009894, "INCLINATION": 86.3449, "RA_OF_ASC_NODE": 12.9107, "ARG_OF_PERICENTER": 77.4352, "MEAN_ANOMALY": 282.7958, "EPHEMERIS_TYPE": 0, "CLASSIFICATION_TYPE": "U", "NORAD_CAT_ID": 34071, "ELEMENT_SET_NO": 999, "REV_AT_EPOCH": 88498, "BSTAR": 0.00061967, "MEAN_MOTION_DOT": 2.395e-05, "MEAN_MOTION_DDOT": 0}, "tle": {"line1": "1 34071U 97051CE  25358.05157061  .00002395  00000+0  61967-3 0  9995", "line2": "2 34071  86.3449  12.9107 0009894  77.4352 282.7958 14.49512497884983"}}, "geometry": {"type": "Point", "coordinates": [18.012550493306648, 55.09518499038309]}}]}